COSMOS 2507 (RODNIK-S *)
1 40920U 15050A   26192.94401213 -.00000101  00000+0 -79759-3 0  9993
2 40920  82.4916  64.2550 0009140 301.1897  58.8286 12.42926769489930
COSMOS 2508 (RODNIK-S *)
1 40921U 15050B   26192.97976113 -.00000023  00000+0 -23995-3 0  9997
2 40921  82.4869  62.7283 0014084 334.0630  25.9742 12.42914656489920
COSMOS 2509 (RODNIK-S *)
1 40922U 15050C   26192.92021183 -.00000086  00000+0 -69410-3 0  9992
2 40922  82.4877  62.8703 0014791 351.3913   8.6911 12.42883896489959
LINGQIAO VIDEO A        
1 40959U 15057B   26192.94667531  .00000530  00000+0  81119-4 0  9997
2 40959  97.6631 186.5282 0016411 183.6732 176.4361 14.77424365579064
LINGQIAO VIDEO B        
1 40960U 15057C   26192.92157303 -.00000135  00000+0 -12118-4 0  9994
2 40960  97.6596 187.6614 0016522 183.8026 176.3062 14.77528372579103
JILIN-1                 
1 40961U 15057D   26192.92400759  .00000429  00000+0  65719-4 0  9990
2 40961  97.6517 191.0638 0016912 177.4219 182.7083 14.78198356579265
FOX-1A (AO-85)          
1 40967U 15058D   26192.02911054  .00001601  00000+0  15193-3 0  9996
2 40967  64.7731 204.8837 0132046  47.3799 313.8357 14.91072604117129
SINOD-D 1               
1 40968U 15058E   26192.41172871  .00002981  00000+0  24247-3 0  9998
2 40968  64.7731 183.0409 0120742  43.5992 317.4586 14.96065583120284
ELEKTRO-L 2             
1 41105U 15074A   26192.41948436 -.00000118  00000+0  00000+0 0  9996
2 41105   6.7510  70.2237 0000888 218.2194 137.3884  1.00272476 38749
DAMPE                   
1 41173U 15078A   26192.94235348  .00000884  00000+0  32229-4 0  9996
2 41173  97.4566 198.5316 0011968 357.3061   2.8114 15.30848377588337
ORBCOMM FM110           
1 41182U 15081D   26192.62154704  .00000197  00000+0  77907-4 0  9990
2 41182  47.0009 245.9084 0003438 207.7250 152.3453 14.58915508561192
ORBCOMM FM112           
1 41184U 15081F   26192.24912345  .00000392  00000+0  11894-3 0  9992
2 41184  46.9978 156.4607 0003891 312.3848  47.6708 14.58935043562469
ORBCOMM FM113           
1 41185U 15081G   26192.29505712  .00000163  00000+0  70748-4 0  9994
2 41185  46.9996 156.6323 0002407 307.2062  52.8604 14.58879671562456
ORBCOMM FM108           
1 41187U 15081J   26192.05167343  .00000291  00000+0  97793-4 0  9995
2 41187  47.0051  69.3634 0002852 307.2078  52.8547 14.58906507563566
ORBCOMM FM117           
1 41188U 15081K   26192.01737147  .00000273  00000+0  94009-4 0  9994
2 41188  47.0015  68.1537 0003288 313.4287  46.6324 14.58893758563603
ORBCOMM FM116           
1 41189U 15081L   26192.27147842  .00000082  00000+0  53499-4 0  9996
2 41189  47.0011 156.7408 0001379 218.1214 141.9574 14.58903266562455
ZIYUAN 3-02 (ZY 3-02)   
1 41556U 16033A   26192.98688103  .00003111  00000+0  14137-3 0  9991
2 41556  97.3832 268.2841 0013730 196.2804 163.7992 15.21414898561754
CARTOSAT-2C             
1 41599U 16040A   26192.95731998  .00002398  00000+0  11693-3 0  9994
2 41599  97.4479 252.5925 0009828  55.1836 305.0322 15.19249288557477
LAPAN-A3                
1 41603U 16040E   26192.92699763  .00002043  00000+0  65843-4 0  9994
2 41603  97.1497 188.2634 0008277 290.4170  69.6184 15.33265128558606
GAOFEN-3                
1 41727U 16049A   26192.99066166 -.00000134  00000+0 -27495-4 0  9994
2 41727  98.4019 200.4019 0001774  88.4213 271.7180 14.42218062522224
CAS-2T & KS-1Q          
1 41847U 16066G   26192.75774159  .00000636  00000+0  97188-4 0  9999
2 41847  98.3814 268.2128 0342420  55.1696 308.1201 14.44765752508345
YUNHAI-1 01             
1 41857U 16068A   26192.96123300  .00000055  00000+0  36391-4 0  9995
2 41857  98.5851 203.7369 0003402 358.2709   1.8463 14.32719977505378
RESOURCESAT-2A          
1 41877U 16074A   26192.98616720 -.00000170  00000+0 -57537-4 0  9994
2 41877  98.7522 266.2868 0002599  35.9056 324.2296 14.21607068497826
TANSAT                  
1 41898U 16081A   26192.98971546  .00000119  00000+0  35298-4 0  9996
2 41898  98.5372 193.9809 0019286 230.5501 129.3992 14.59969902508245
