OBJECT_NAME,OBJECT_ID,EPOCH,MEAN_MOTION,ECCENTRICITY,INCLINATION,RA_OF_ASC_NODE,ARG_OF_PERICENTER,MEAN_ANOMALY,EPHEMERIS_TYPE,CLASSIFICATION_TYPE,NORAD_CAT_ID,ELEMENT_SET_NO,REV_AT_EPOCH,BSTAR,MEAN_MOTION_DOT,MEAN_MOTION_DDOT
COSMOS 2507 (RODNIK-S 13),2015-050A,2026-07-11T22:39:22.648032,12.42926769,.00091404,82.4916,64.2550,301.1897,58.8286,0,U,40920,999,48993,-.79759486E-3,-.101E-5,0
COSMOS 2508 (RODNIK-S 14),2015-050B,2026-07-11T23:30:51.361632,12.42914656,.00140848,82.4869,62.7283,334.0630,25.9742,0,U,40921,999,48992,-.23995344E-3,-.23E-6,0
COSMOS 2509 (RODNIK-S 15),2015-050C,2026-07-11T22:05:06.302112,12.42883896,.00147919,82.4877,62.8703,351.3913,8.6911,0,U,40922,999,48995,-.69410151E-3,-.86E-6,0
LINGQIAO VIDEO A,2015-057B,2026-07-11T22:43:12.746784,14.77424365,.00164114,97.6631,186.5282,183.6732,176.4361,0,U,40959,999,57906,.81119244E-4,.53E-5,0
LINGQIAO VIDEO B,2015-057C,2026-07-11T22:07:03.909792,14.77528372,.00165223,97.6596,187.6614,183.8026,176.3062,0,U,40960,999,57910,-.12118041E-4,-.135E-5,0
JILIN-1,2015-057D,2026-07-11T22:10:34.255776,14.78198356,.00169128,97.6517,191.0638,177.4219,182.7083,0,U,40961,999,57926,.65719324E-4,.429E-5,0
FOX-1A (AO-85),2015-058D,2026-07-11T00:41:55.150656,14.91072604,.01320462,64.7731,204.8837,47.3799,313.8357,0,U,40967,999,11712,.15192539E-3,.1601E-4,0
SINOD-D 1,2015-058E,2026-07-11T09:52:53.360544,14.96065583,.01207429,64.7731,183.0409,43.5992,317.4586,0,U,40968,999,12028,.24246523E-3,.2981E-4,0
ELEKTRO-L 2,2015-074A,2026-07-11T10:04:03.448704,1.00272476,.00008885,6.7510,70.2237,218.2194,137.3884,0,U,41105,999,3874,0,-.118E-5,0
DAMPE,2015-078A,2026-07-11T22:36:59.340672,15.30848377,.00119682,97.4566,198.5316,357.3061,2.8114,0,U,41173,999,58833,.32229173E-4,.884E-5,0
ORBCOMM FM110,2015-081D,2026-07-11T14:55:01.664256,14.58915508,.00034383,47.0009,245.9084,207.7250,152.3453,0,U,41182,999,56119,.77906838E-4,.197E-5,0
ORBCOMM FM112,2015-081F,2026-07-11T05:58:44.266080,14.58935043,.00038914,46.9978,156.4607,312.3848,47.6708,0,U,41184,999,56246,.11894191E-3,.392E-5,0
ORBCOMM FM113,2015-081G,2026-07-11T07:04:52.935168,14.58879671,.0002407,46.9996,156.6323,307.2062,52.8604,0,U,41185,999,56245,.70748103E-4,.163E-5,0
ORBCOMM FM108,2015-081J,2026-07-11T01:14:24.584352,14.58906507,.00028521,47.0051,69.3634,307.2078,52.8547,0,U,41187,999,56356,.97793092E-4,.291E-5,0
ORBCOMM FM117,2015-081K,2026-07-11T00:25:00.895008,14.58893758,.00032883,47.0015,68.1537,313.4287,46.6324,0,U,41188,999,56360,.94009142E-4,.273E-5,0
ORBCOMM FM116,2015-081L,2026-07-11T06:30:55.735488,14.58903266,.00013799,47.0011,156.7408,218.1214,141.9574,0,U,41189,999,56245,.53498669E-4,.82E-6,0
ZIYUAN 3-02 (ZY 3-02),2016-033A,2026-07-11T23:41:06.520992,15.21414898,.00137308,97.3832,268.2841,196.2804,163.7992,0,U,41556,999,56175,.14137218E-3,.3111E-4,0
CARTOSAT-2C,2016-040A,2026-07-11T22:58:32.446272,15.19249288,.00098283,97.4479,252.5925,55.1836,305.0322,0,U,41599,999,55747,.11693141E-3,.2398E-4,0
LAPAN-A3,2016-040E,2026-07-11T22:14:52.595232,15.33265128,.00082776,97.1497,188.2634,290.4170,69.6184,0,U,41603,999,55860,.6584297E-4,.2043E-4,0
GAOFEN-3,2016-049A,2026-07-11T23:46:33.167424,14.42218062,.00017748,98.4019,200.4019,88.4213,271.7180,0,U,41727,999,52222,-.27495492E-4,-.134E-5,0
CAS-2T & KS-1Q,2016-066G,2026-07-11T18:11:08.873376,14.44765752,.03424202,98.3814,268.2128,55.1696,308.1201,0,U,41847,999,50834,.9718848E-4,.636E-5,0
YUNHAI-1 01,2016-068A,2026-07-11T23:04:10.531200,14.32719977,.00034028,98.5851,203.7369,358.2709,1.8463,0,U,41857,999,50537,.36391097E-4,.55E-6,0
RESOURCESAT-2A,2016-074A,2026-07-11T23:40:04.846080,14.21607068,.00025992,98.7522,266.2868,35.9056,324.2296,0,U,41877,999,49782,-.57536672E-4,-.17E-5,0
TANSAT,2016-081A,2026-07-11T23:45:11.415744,14.59969902,.0019286,98.5372,193.9809,230.5501,129.3992,0,U,41898,999,50824,.35298333E-4,.119E-5,0
